{
    "links": {
        "self": "http://www.neowsapp.com/rest/v1/neo/3739380?api_key=iIulBulltgU6a56xZRHN4H3l9WmuAYTsLGpBGhQ2"
    },
    "id": "3739380",
    "neo_reference_id": "3739380",
    "name": "(2016 AY64)",
    "designation": "2016 AY64",
    "nasa_jpl_url": "http://ssd.jpl.nasa.gov/sbdb.cgi?sstr=3739380",
    "absolute_magnitude_h": 26.3,
    "estimated_diameter": {
        "kilometers": {
            "estimated_diameter_min": 0.0146067964,
            "estimated_diameter_max": 0.0326617897
        },
        "meters": {
            "estimated_diameter_min": 14.6067964271,
            "estimated_diameter_max": 32.6617897446
        },
        "miles": {
            "estimated_diameter_min": 0.0090762397,
            "estimated_diameter_max": 0.020295089
        },
        "feet": {
            "estimated_diameter_min": 47.92256199,
            "estimated_diameter_max": 107.1581062656
        }
    },
    "is_potentially_hazardous_asteroid": false,
    "close_approach_data": [
        {
            "close_approach_date": "1922-08-06",
            "close_approach_date_full": "1922-Aug-06 12:38",
            "epoch_date_close_approach": -1495970520000,
            "relative_velocity": {
                "kilometers_per_second": "16.3162480787",
                "kilometers_per_hour": "58738.4930834712",
                "miles_per_hour": "36497.815327338"
            },
            "miss_distance": {
                "astronomical": "0.1925176411",
                "lunar": "74.8893623879",
                "kilometers": "28800229.045984457",
                "miles": "17895632.4976692266"
            },
            "orbiting_body": "Earth"
        },
        {
            "close_approach_date": "1955-01-06",
            "close_approach_date_full": "1955-Jan-06 13:09",
            "epoch_date_close_approach": -472906260000,
            "relative_velocity": {
                "kilometers_per_second": "13.3812048069",
                "kilometers_per_hour": "48172.3373047039",
                "miles_per_hour": "29932.4170324701"
            },
            "miss_distance": {
                "astronomical": "0.0793365338",
                "lunar": "30.8619116482",
                "kilometers": "11868576.469663006",
                "miles": "7374791.4446252428"
            },
            "orbiting_body": "Earth"
        },
        {
            "close_approach_date": "2016-01-01",
            "close_approach_date_full": "2016-Jan-01 18:35",
            "epoch_date_close_approach": 1451673300000,
            "relative_velocity": {
                "kilometers_per_second": "11.187429262",
                "kilometers_per_hour": "40274.7453431881",
                "miles_per_hour": "25025.1605161604"
            },
            "miss_distance": {
                "astronomical": "0.018593577",
                "lunar": "7.232901453",
                "kilometers": "2781559.51488099",
                "miles": "1728380.936458062"
            },
            "orbiting_body": "Earth"
        }
    ],
    "orbital_data": {
        "orbit_id": "6",
        "orbit_determination_date": "2017-04-06 08:29:21",
        "first_observation_date": "2016-01-07",
        "last_observation_date": "2016-01-15",
        "data_arc_in_days": 8,
        "observations_used": 28,
        "orbit_uncertainty": "8",
        "minimum_orbit_intersection": ".0184339",
        "jupiter_tisserand_invariant": "4.604",
        "epoch_osculation": "2457396.5",
        "eccentricity": ".4193357044946944",
        "semi_major_axis": "1.421515921328382",
        "inclination": "5.984274038358148",
        "ascending_node_longitude": "290.1211557338279",
        "orbital_period": "619.0504152593611",
        "perihelion_distance": ".8254235410077205",
        "perihelion_argument": "106.3119049715161",
        "aphelion_distance": "2.017608301649044",
        "perihelion_time": "2457342.895026397698",
        "mean_anomaly": "31.17321307141616",
        "mean_motion": ".5815358347658521",
        "equinox": "J2000",
        "orbit_class": {
            "orbit_class_type": "APO",
            "orbit_class_description": "Near-Earth asteroid orbits which cross the Earth’s orbit similar to that of 1862 Apollo",
            "orbit_class_range": "a (semi-major axis) > 1.0 AU; q (perihelion) < 1.017 AU"
        }
    },
    "is_sentry_object": false
}